OBJECT_NAME,OBJECT_ID,EPOCH,MEAN_MOTION,ECCENTRICITY,INCLINATION,RA_OF_ASC_NODE,ARG_OF_PERICENTER,MEAN_ANOMALY,EPHEMERIS_TYPE,CLASSIFICATION_TYPE,NORAD_CAT_ID,ELEMENT_SET_NO,REV_AT_EPOCH,BSTAR,MEAN_MOTION_DOT,MEAN_MOTION_DDOT
STARLINK-37645,2026-123U,2026-06-14T14:00:01.999872,15.86937879,.0001043,53.1566,254.3718,72.3462,180.5307,0,U,69371,999,278,-.90961172E-2,-.2071713E-1,0
STARLINK-37688,2026-123V,2026-06-14T14:00:01.999872,15.86241059,.0000856,53.1563,254.3335,64.4415,206.5612,0,U,69372,999,278,-.94142266E-2,-.2071068E-1,0
STARLINK-37685,2026-123W,2026-06-14T14:00:01.999872,15.86142245,.00011042,53.1564,254.3261,85.0997,189.4345,0,U,69373,999,278,-.99347815E-2,-.2159656E-1,0
STARLINK-37632,2026-123X,2026-06-14T14:00:01.999872,15.86146684,.00009163,53.1561,254.3189,64.9939,213.0815,0,U,69374,999,273,-.88389497E-2,-.1953589E-1,0
STARLINK-37454,2026-123Y,2026-06-14T14:00:01.999872,15.86156643,.00009665,53.1562,254.3044,62.5934,222.2475,0,U,69375,999,287,-.97924149E-2,-.2134443E-1,0
STARLINK-37485,2026-123Z,2026-06-14T14:00:01.999872,15.86146917,.00008329,53.1563,254.2954,58.5160,230.5813,0,U,69376,999,287,-.97671693E-2,-.212872E-1,0
STARLINK-37439,2026-123AA,2026-06-14T14:00:01.999872,15.87895669,.00007847,53.1555,254.2274,71.1849,250.4694,0,U,69377,999,273,-.91185041E-2,-.2162668E-1,0
STARLINK-37376,2026-123AB,2026-06-14T14:00:01.999872,15.87048248,.00008271,53.1558,254.2492,64.2838,246.7720,0,U,69378,999,287,-.93611153E-2,-.2132971E-1,0
STARLINK-37383,2026-123AC,2026-06-14T14:00:01.999872,15.87778522,.00007507,53.1551,254.1834,67.1738,275.2310,0,U,69379,999,287,-.92014504E-2,-.216842E-1,0
STARLINK-37411,2026-123AD,2026-06-14T14:00:01.999872,15.87038298,.00008332,53.1558,254.2339,62.4033,255.7033,0,U,69380,999,287,-.94944435E-2,-.2157884E-1,0
STARLINK-37427,2026-123AE,2026-06-14T14:00:01.999872,15.87973221,.00008457,53.1555,254.1963,67.3904,268.9253,0,U,69381,999,278,-.88257175E-2,-.2110432E-1,0
QIANFAN-165,2026-124A,2026-06-13T19:09:35.953056,14.21216415,.00024,88.9991,2.4245,151.4164,208.7159,0,U,69382,999,133,.37879E-4,.97E-6,0
QIANFAN-166,2026-124B,2026-06-14T01:52:29.439264,14.20451886,.0002134,89.0014,2.3807,113.5942,246.5473,0,U,69383,999,137,.36439832E-4,.93E-6,0
QIANFAN-167,2026-124C,2026-06-13T22:28:45.906816,14.21105494,.00063376,88.9952,2.4146,194.5230,165.5780,0,U,69384,999,135,.37432582E-4,.96E-6,0
QIANFAN-168,2026-124D,2026-06-13T22:27:08.431200,14.21872881,.00023132,89.0066,2.3643,140.1786,219.9575,0,U,69385,999,135,.37407474E-4,.97E-6,0
QIANFAN-169,2026-124E,2026-06-14T01:48:31.391712,14.22762892,.00010338,89.0015,2.3915,310.2027,49.9074,0,U,69386,999,137,.36066853E-4,.95E-6,0
QIANFAN-170,2026-124F,2026-06-14T01:47:03.667200,14.23171609,.00022529,88.9994,2.3837,116.5235,243.6188,0,U,69387,999,137,.36119611E-4,.96E-6,0
QIANFAN-171,2026-124G,2026-06-13T18:59:02.743008,14.20530017,.0022197,88.9981,2.4235,187.5923,172.4935,0,U,69388,999,133,-.86631143E+0,-.1724011E-1,0
QIANFAN-172,2026-124H,2026-06-13T20:34:16.387104,14.29008880,.0003179,88.9977,2.4156,174.9675,185.1552,0,U,69389,999,134,-.61076877E+0,-.1443543E-1,0
QIANFAN-173,2026-124J,2026-06-13T22:23:12.776928,14.24972369,.00021626,89.0007,2.4092,158.8999,201.2283,0,U,69390,999,135,.36702002E-4,.1E-5,0
QIANFAN-174,2026-124K,2026-06-14T00:03:45.274176,14.25618199,.00023663,88.9983,2.3990,170.0899,190.0341,0,U,69391,999,136,.36817554E-4,.102E-5,0
QIANFAN-175,2026-124L,2026-06-14T01:44:43.086624,14.25625629,.00027504,88.9984,2.3909,177.2611,182.8598,0,U,69392,999,137,.36309812E-4,.101E-5,0
QIANFAN-176,2026-124M,2026-06-14T13:31:58.533888,14.25634354,.00019187,88.9983,2.3346,175.5946,184.5265,0,U,69393,999,144,.34172008E-4,.96E-6,0
QIANFAN-177,2026-124N,2026-06-14T11:50:11.491584,14.25688564,.00029237,88.9981,2.3424,161.1183,199.0119,0,U,69394,999,143,.3578078E-5,.23E-6,0
QIANFAN-178,2026-124P,2026-06-14T13:31:28.234272,14.25625895,.00023284,88.9983,2.3345,166.2730,193.8527,0,U,69395,999,144,.2417753E-4,.72E-6,0
QIANFAN-179,2026-124Q,2026-06-13T20:38:29.185728,14.22997940,.00043527,88.9978,2.4153,107.3109,252.8559,0,U,69396,999,134,-.94571829E+0,-.1971323E-1,0
QIANFAN-180,2026-124R,2026-06-14T00:01:53.851872,14.26489166,.00023412,88.9984,2.3989,170.3819,189.7420,0,U,69397,999,136,.3682278E-4,.103E-5,0
QIANFAN-181,2026-124S,2026-06-14T03:36:53.227584,14.21115081,.00021189,88.9983,2.3842,140.0514,220.0833,0,U,69398,999,138,.36214652E-4,.93E-6,0
QIANFAN-182,2026-124T,2026-06-13T19:02:53.132928,14.24123720,.0003044,88.9961,2.4186,159.9795,200.1517,0,U,69399,999,133,.37156E-4,.1E-5,0
